OBJECT_NAME,OBJECT_ID,EPOCH,MEAN_MOTION,ECCENTRICITY,INCLINATION,RA_OF_ASC_NODE,ARG_OF_PERICENTER,MEAN_ANOMALY,EPHEMERIS_TYPE,CLASSIFICATION_TYPE,NORAD_CAT_ID,ELEMENT_SET_NO,REV_AT_EPOCH,BSTAR,MEAN_MOTION_DOT,MEAN_MOTION_DDOT,GROUP
COSMOS 2498 (RODNIK-S 12),2014-028C,2026-05-03T07:16:42.459744,12.42979008,0.00214394,82.4428,137.025,168.0779,192.0812,0,U,39763,999,54197,-0.00019737207,-1.7e-07,0.0,Active Satellites
ALOS-2,2014-029A,2026-05-03T07:09:56.299392,14.79488227,0.00016494,97.9215,221.104,86.3516,273.7884,0,U,39766,999,64494,0.00027218345,1.983e-05,0.0,Active Satellites
UNIFORM 1,2014-029B,2026-05-03T06:10:54.802272,14.95656226,0.00062932,97.8021,220.8144,99.1259,261.0674,0,U,39767,999,64750,0.00023814544,2.59e-05,0.0,Active Satellites
SOCRATES,2014-029C,2026-05-03T05:59:44.526624,14.94620755,0.00073702,97.9022,236.3782,123.6567,236.5357,0,U,39768,999,64769,0.0002452216,2.598e-05,0.0,Active Satellites
RISING 2,2014-029D,2026-05-03T06:22:39.550656,14.98079823,0.0005192,97.6535,192.6298,98.8457,261.3354,0,U,39769,999,64682,0.00054992128,6.453e-05,0.0,Active Satellites
EUTELSAT 3B,2014-030A,2026-05-03T06:26:17.936160,1.00271556,0.00041838,0.0667,352.5972,52.2561,275.9909,0,U,39773,999,4361,0.0,2.7e-07,0.0,Active Satellites
COSMOS 2500 [GLONASS-M],2014-032A,2026-05-02T23:46:07.948992,2.13106011,0.00058748,65.2587,315.2224,181.4806,178.5309,0,U,40001,999,9249,0.0,-4.7e-07,0.0,Active Satellites
KAZEOSAT 2,2014-033A,2026-05-03T07:11:49.213824,14.85415366,0.0010051,97.5434,325.2773,104.4319,255.8013,0,U,40010,999,64229,5.3388216e-05,4.1e-06,0.0,Active Satellites
HODOYOSHI-4,2014-033B,2026-05-03T07:37:39.122688,14.88019566,0.00251365,97.545,310.3094,94.0798,266.3293,0,U,40011,999,64213,0.00013504814,1.195e-05,0.0,Active Satellites
UNISAT-6,2014-033C,2026-05-03T03:34:38.024544,14.87980647,0.0044534,97.7823,276.6763,215.4532,144.3723,0,U,40012,999,63946,0.00039185264,3.604e-05,0.0,Active Satellites
DEIMOS-2,2014-033D,2026-05-03T05:34:04.888128,14.93600841,0.00023422,97.5893,359.2904,89.815,270.3339,0,U,40013,999,63101,0.00011930456,1.204e-05,0.0,Active Satellites
BUGSAT-1 (TITA),2014-033E,2026-05-03T06:22:35.458752,15.15135866,0.00276062,98.041,213.2083,336.5583,23.4387,0,U,40014,999,64903,0.00036665938,6.863e-05,0.0,Active Satellites
HODOYOSHI-3,2014-033F,2026-05-02T21:57:34.240032,14.85289081,0.0033881,97.6377,287.7917,141.7817,218.581,0,U,40015,999,64090,0.00017289,1.447e-05,0.0,Active Satellites
SAUDISAT 4,2014-033G,2026-05-03T05:04:36.323328,14.79477623,0.00439608,97.7521,270.9188,218.2939,141.515,0,U,40016,999,63942,0.00011792771,8.43e-06,0.0,Active Satellites
APRIZESAT 9,2014-033J,2026-05-02T22:26:13.072992,14.7416256,0.0065806,97.8992,257.2569,346.9916,12.9593,0,U,40018,999,63689,8.224e-05,5.08e-06,0.0,Active Satellites
APRIZESAT 10,2014-033K,2026-05-03T07:06:38.733696,14.70843304,0.00799737,97.9583,251.2751,57.7425,303.15,0,U,40019,999,63565,9.7429003e-05,5.73e-06,0.0,Active Satellites
BRITE-CA1 (TORONTO),2014-033L,2026-05-03T06:16:44.470848,14.7261311,0.00798454,97.9671,253.0368,61.3249,299.5957,0,U,40020,999,63560,0.00015684436,9.97e-06,0.0,Active Satellites
DUCHIFAT-1,2014-033M,2026-05-03T03:09:49.837248,15.57033217,0.00050338,98.0521,176.2642,213.0313,147.0627,0,U,40021,999,64872,0.0010613379,0.00077236,0.0,Active Satellites
NANOSATC-BR1,2014-033Q,2026-05-03T00:49:18.206400,15.30040501,0.00029346,98.0753,151.467,13.1166,347.0148,0,U,40024,999,64707,0.00061672611,0.00017872,0.0,Active Satellites
QB50P1,2014-033R,2026-05-03T06:10:18.992064,15.17560292,0.00094298,98.0977,131.2764,31.0092,329.1695,0,U,40025,999,64621,0.00047998859,9.577e-05,0.0,Active Satellites
DTUSAT-2,2014-033W,2026-05-03T06:01:00.279552,15.14428829,0.00089206,98.0869,118.1489,39.8191,320.3692,0,U,40030,999,64588,0.00047628686,8.689e-05,0.0,Active Satellites
QB50P2,2014-033Y,2026-05-03T05:58:55.261344,15.14583508,0.00066805,98.0755,117.356,342.3794,17.7203,0,U,40032,999,64586,0.00045626536,8.354e-05,0.0,Active Satellites
PERSEUS-M2,2014-033AD,2026-05-03T07:11:19.645152,14.95372993,0.00134721,97.9949,72.9411,87.283,272.9932,0,U,40037,999,64407,0.00012312482,1.3e-05,0.0,Active Satellites
PERSEUS-M1,2014-033AF,2026-05-03T06:37:25.185216,14.9548452,0.00132373,97.9627,66.6844,86.5673,273.7061,0,U,40039,999,64392,0.00016173142,1.732e-05,0.0,Active Satellites
POLYITAN-1,2014-033AJ,2026-05-03T07:46:34.474368,15.31735959,0.0005512,98.0976,145.3927,312.6237,47.4537,0,U,40042,999,64672,0.0006799104,0.0002079,0.0,Active Satellites
TIGRISAT,2014-033AK,2026-05-02T21:42:38.547648,14.84968693,0.0048554,97.7773,273.9745,221.9283,137.821,0,U,40043,999,63890,0.00032044,2.733e-05,0.0,Active Satellites
LEMUR-1,2014-033AL,2026-05-03T03:39:41.665248,14.85048788,0.00475423,97.782,273.9792,224.6566,135.0816,0,U,40044,999,63878,0.00032725153,2.796e-05,0.0,Active Satellites
AEROCUBE 6A,2014-033AM,2026-05-03T04:45:02.915424,14.97591361,0.0039582,97.7185,290.6521,164.6714,195.5717,0,U,40045,999,63988,0.00069544322,8.201e-05,0.0,Active Satellites
