COSMOS 2498 (RODNIK-S *)
1 39763U 14028C   26123.30326921 -.00000017  00000+0 -19737-3 0  9992
2 39763  82.4428 137.0250 0021439 168.0779 192.0812 12.42979008541974
ALOS-2                  
1 39766U 14029A   26123.29856828  .00001983  00000+0  27218-3 0  9992
2 39766  97.9215 221.1040 0001649  86.3516 273.7884 14.79488227644943
UNIFORM 1               
1 39767U 14029B   26123.25757873  .00002590  00000+0  23815-3 0  9993
2 39767  97.8021 220.8144 0006293  99.1259 261.0674 14.95656226647501
SOCRATES                
1 39768U 14029C   26123.24982091  .00002598  00000+0  24522-3 0  9999
2 39768  97.9022 236.3782 0007370 123.6567 236.5357 14.94620755647698
RISING 2                
1 39769U 14029D   26123.26573554  .00006453  00000+0  54992-3 0  9990
2 39769  97.6535 192.6298 0005192  98.8457 261.3354 14.98079823646827
EUTELSAT 3B             
1 39773U 14030A   26123.26826315  .00000027  00000+0  00000+0 0  9991
2 39773   0.0667 352.5972 0004183  52.2561 275.9909  1.00271556 43612
COSMOS 2500 [GLONASS-M] 
1 40001U 14032A   26122.99036978 -.00000047  00000+0  00000+0 0  9999
2 40001  65.2587 315.2224 0005874 181.4806 178.5309  2.13106011 92493
KAZEOSAT 2              
1 40010U 14033A   26123.29987516  .00000410  00000+0  53388-4 0  9992
2 40010  97.5434 325.2773 0010051 104.4319 255.8013 14.85415366642297
HODOYOSHI-4             
1 40011U 14033B   26123.31781392  .00001195  00000+0  13505-3 0  9997
2 40011  97.5450 310.3094 0025136  94.0798 266.3293 14.88019566642137
UNISAT-6                
1 40012U 14033C   26123.14905121  .00003604  00000+0  39185-3 0  9996
2 40012  97.7823 276.6763 0044534 215.4532 144.3723 14.87980647639460
DEIMOS-2                
1 40013U 14033D   26123.23200102  .00001204  00000+0  11930-3 0  9996
2 40013  97.5893 359.2904 0002342  89.8150 270.3339 14.93600841631019
BUGSAT-1 (TITA)         
1 40014U 14033E   26123.26568818  .00006863  00000+0  36666-3 0  9990
2 40014  98.0410 213.2083 0027606 336.5583  23.4387 15.15135866649036
HODOYOSHI-3             
1 40015U 14033F   26122.91497963  .00001447  00000+0  17289-3 0  9997
2 40015  97.6377 287.7917 0033881 141.7817 218.5810 14.85289081640904
SAUDISAT 4              
1 40016U 14033G   26123.21153152  .00000843  00000+0  11793-3 0  9994
2 40016  97.7521 270.9188 0043960 218.2939 141.5150 14.79477623639426
APRIZESAT 9             
1 40018U 14033J   26122.93487353  .00000508  00000+0  82240-4 0  9991
2 40018  97.8992 257.2569 0065806 346.9916  12.9593 14.74162560636895
APRIZESAT 10            
1 40019U 14033K   26123.29628164  .00000573  00000+0  97429-4 0  9996
2 40019  97.9583 251.2751 0079973  57.7425 303.1500 14.70843304635656
BRITE-CA1 (TORONTO)     
1 40020U 14033L   26123.26162582  .00000997  00000+0  15684-3 0  9994
2 40020  97.9671 253.0368 0079845  61.3249 299.5957 14.72613110635604
DUCHIFAT-1              
1 40021U 14033M   26123.13182682  .00077236  00000+0  10613-2 0  9990
2 40021  98.0521 176.2642 0005033 213.0313 147.0627 15.57033217648724
NANOSATC-BR1            
1 40024U 14033Q   26123.03423850  .00017872  00000+0  61673-3 0  9990
2 40024  98.0753 151.4670 0002934  13.1166 347.0148 15.30040501647074
QB50P1                  
1 40025U 14033R   26123.25716426  .00009577  00000+0  47999-3 0  9997
2 40025  98.0977 131.2764 0009429  31.0092 329.1695 15.17560292646218
DTUSAT-2                
1 40030U 14033W   26123.25069768  .00008689  00000+0  47629-3 0  9996
2 40030  98.0869 118.1489 0008920  39.8191 320.3692 15.14428829645881
QB50P2                  
1 40032U 14033Y   26123.24925071  .00008354  00000+0  45627-3 0  9990
2 40032  98.0755 117.3560 0006680 342.3794  17.7203 15.14583508645869
PERSEUS-M2              
1 40037U 14033AD  26123.29953293  .00001300  00000+0  12312-3 0  9996
2 40037  97.9949  72.9411 0013472  87.2830 272.9932 14.95372993644079
PERSEUS-M1              
1 40039U 14033AF  26123.27598594  .00001732  00000+0  16173-3 0  9993
2 40039  97.9627  66.6844 0013237  86.5673 273.7061 14.95484520643925
POLYITAN-1              
1 40042U 14033AJ  26123.32401012  .00020790  00000+0  67991-3 0  9990
2 40042  98.0976 145.3927 0005512 312.6237  47.4537 15.31735959646722
TIGRISAT                
1 40043U 14033AK  26122.90461282  .00002733  00000+0  32044-3 0  9997
2 40043  97.7773 273.9745 0048554 221.9283 137.8210 14.84968693638909
LEMUR-1                 
1 40044U 14033AL  26123.15256557  .00002796  00000+0  32725-3 0  9998
2 40044  97.7820 273.9792 0047542 224.6566 135.0816 14.85048788638788
AEROCUBE 6A             
1 40045U 14033AM  26123.19795041  .00008201  00000+0  69544-3 0  9995
2 40045  97.7185 290.6521 0039582 164.6714 195.5717 14.97591361639888
